COSMOS 2251 DEB         
1 47051U 93036BXF 26057.25020635  .00001045  00000+0  84654-3 0  9990
2 47051  74.0972  60.1411 0340476 156.9473 223.2083 13.67442496609708
COSMOS 2251 DEB         
1 47052U 93036BXG 26058.83087242  .00000862  00000+0  30175-3 0  9998
2 47052  74.0482 199.0031 0060106 255.6122 257.3806 14.35635164628953
COSMOS 2251 DEB         
1 47053U 93036BXH 26040.07859037  .00001450  00000+0  12257-2 0  9999
2 47053  74.0576 159.6243 0381104 320.0647 225.2715 13.59837713296816
COSMOS 2251 DEB         
1 47059U 93036BXP 26055.43072193  .00069352  00000+0  28819-2 0  9997
2 47059  73.9739  80.9699 0018976 258.0232 101.8839 15.23304419 94239
COSMOS 2251 DEB         
1 47062U 93036BXS 26041.15959669  .00001791  00000+0  13821-2 0  9997
2 47062  74.0836 340.1786 0319891  92.0096 333.3005 13.72079263564175
COSMOS 2251 DEB         
1 47068U 93036BXY 26044.47297377  .00002943  00000+0  70712-3 0  9995
2 47068  74.0237  84.9309 0016285 168.6745 191.4787 14.53757237626681
COSMOS 2251 DEB         
1 47069U 93036BXZ 26054.08430688  .00021940  00000+0  26112-2 0  9990
2 47069  74.0146 329.5947 0007136 272.2683  87.7678 14.84285904735694
COSMOS 2251 DEB         
1 47073U 93036BYD 26053.80404353  .00000763  00000+0  43662-3 0  9994
2 47073  74.0811  76.4519 0158708  97.3808 264.5395 14.04887580613739
COSMOS 2251 DEB         
1 47074U 93036BYE 26046.10607934  .00007930  00000+0  24264-2 0  9999
2 47074  74.0917 190.9144 0141090 203.8881 274.7362 14.36309703 36067
COSMOS 2251 DEB         
1 47116U 93036BYJ 26058.35075321  .00023658  00000+0  17597-2 0  9991
2 47116  74.0208  84.7822 0017194 181.9976 194.0424 15.02778291606600
